{
"type": "FeatureCollection",
"name": "okrsky_senat_edit",
"crs": { "type": "name", "properties": { "name": "urn:ogc:def:crs:OGC:1.3:CRS84" } },
"features": [
{ "type": "Feature", "properties": { "DAVKA": 2, "CIS_OBEC": 539911, "CIS_OKRSEK": 1, "CIS_OBVOD": 18, "PORADI_ZPRAC": 4, "DATUM_CAS_ZPRAC": "2026-09-11T10:04:43", "OPAKOVANE": "0", "ZAPSANI_VOLICI": 1800, "VYDANE_OBALKY": 1000, "ODEVZDANE_OBALKY": 1000, "PLATNE_HLASY": 1000, "PORADOVE_CISLO": 1, "HLASY": 400, "OBVOD": 18, "CKAND": 1, "JMENO": "Petr", "PRIJMENI": "Štěpánek", "ZKRATKAV8": "STAN", "HLASY_PROC": 40.0, "HLASY_PROC_TEXT": " - 40,00 %", "TOOLTIP": "Petr Štěpánek (STAN) - 40,00 %", "Výsledek 1. kola": "Petr Štěpánek (STAN) - 40,00 % | Frank Thomas Podstatzky-Lichtenstein (ČZS) - 35,00 % | Josef Šorna (SPD+PRO) - 13,00 % | Simona Luftová (Zelení+Piráti) - 7,00 % | Pavel Vermach (SMS) - 3,00 % | Barbora Daňhová (ANO) - 2,00 %", "REMIZA": false, "Vítěz": "Petr Štěpánek (STAN)", "NAZEV_OBV": "Příbram", "OBVOD_NAZEV": "18 - Příbram", "OBEC": 539911, "NAZEVOBCE": "Příbram", "Název okrsku": "Příbram - okrsek č. 1", "Volební účast (v %)": 55.6, "kod_obec": 539911, "kod_mco": null, "cislo": 1, "naz_obec": "Příbram", "naz_mco": " " }, "geometry": { "type": "Polygon", "coordinates": [ [ [ 14.012900378986226, 49.693978286197179 ], [ 14.010107049593659, 49.694067091992189 ], [ 14.003579405729122, 49.688032223890694 ], [ 14.00458822373214, 49.686909670978253 ], [ 14.009132681561017, 49.686898743194732 ], [ 14.011045340622102, 49.688229514558593 ], [ 14.013427897525517, 49.691948390500905 ], [ 14.012900378986226, 49.693978286197179 ] ] ] } },
{ "type": "Feature", "properties": { "DAVKA": 1, "CIS_OBEC": 540471, "CIS_OKRSEK": 1, "CIS_OBVOD": 66, "PORADI_ZPRAC": 2, "DATUM_CAS_ZPRAC": "2026-09-11T09:53:17", "OPAKOVANE": "0", "ZAPSANI_VOLICI": 1200, "VYDANE_OBALKY": 600, "ODEVZDANE_OBALKY": 600, "PLATNE_HLASY": 600, "PORADOVE_CISLO": 1, "HLASY": 300, "OBVOD": 66, "CKAND": 1, "JMENO": "Michael", "PRIJMENI": "Kohajda", "ZKRATKAV8": "KDU-ČSL", "HLASY_PROC": 50.0, "HLASY_PROC_TEXT": " - 50,00 %", "TOOLTIP": "Michael Kohajda (KDU-ČSL) - 50,00 %", "Výsledek 1. kola": "Michael Kohajda (KDU-ČSL) - 50,00 % | Pavel Jelínek (SPD) - 16,67 % | Martin Škurek (ANO) - 16,67 % | Marek Ošťádal (24/7) - 13,33 % | Zdeněk Beil (Levice) - 3,33 %", "REMIZA": false, "Vítěz": "Michael Kohajda (KDU-ČSL)", "NAZEV_OBV": "Litovel", "OBVOD_NAZEV": "66 - Litovel", "OBEC": 540471, "NAZEVOBCE": "Mohelnice", "Název okrsku": "Mohelnice - okrsek č. 1", "Volební účast (v %)": 50.0, "kod_obec": 540471, "kod_mco": null, "cislo": 1, "naz_obec": "Mohelnice", "naz_mco": " " }, "geometry": { "type": "MultiPolygon", "coordinates": [ [ [ [ 16.918999153627073, 49.774701183388665 ], [ 16.912822595526514, 49.777155288633885 ], [ 16.911499981993799, 49.773585771098595 ], [ 16.913891082271025, 49.767911950405285 ], [ 16.917935848586769, 49.765919910476221 ], [ 16.915638988533633, 49.763549242136811 ], [ 16.917850704303017, 49.761393938323664 ], [ 16.917146499696919, 49.758197145623157 ], [ 16.922186835016724, 49.75824372303741 ], [ 16.920367052319563, 49.764733961715237 ], [ 16.925968698736614, 49.761760540895551 ], [ 16.936010988559161, 49.762148570527685 ], [ 16.93610610806558, 49.7679972010162 ], [ 16.919177053729037, 49.768762405660553 ], [ 16.924496323377561, 49.769866512705114 ], [ 16.926206536017407, 49.773362913050143 ], [ 16.92561306141997, 49.775063577782653 ], [ 16.921726228430533, 49.776166274770524 ], [ 16.918999153627073, 49.774701183388665 ] ] ], [ [ [ 16.91872455354746, 49.775890222860916 ], [ 16.917748755286969, 49.775814137572041 ], [ 16.918329119986378, 49.775683984663985 ], [ 16.91872455354746, 49.775890222860916 ] ] ] ] } },
{ "type": "Feature", "properties": { "DAVKA": 1, "CIS_OBEC": 540471, "CIS_OKRSEK": 2, "CIS_OBVOD": 66, "PORADI_ZPRAC": 1, "DATUM_CAS_ZPRAC": "2026-09-11T09:51:20", "OPAKOVANE": "0", "ZAPSANI_VOLICI": 1000, "VYDANE_OBALKY": 400, "ODEVZDANE_OBALKY": 400, "PLATNE_HLASY": 200, "PORADOVE_CISLO": 1, "HLASY": 50, "OBVOD": 66, "CKAND": 1, "JMENO": "Michael", "PRIJMENI": "Kohajda", "ZKRATKAV8": "remíza", "HLASY_PROC": 25.0, "HLASY_PROC_TEXT": " - 25,00 %", "TOOLTIP": "Michael Kohajda (KDU-ČSL) - 25,00 %", "Výsledek 1. kola": "Michael Kohajda (KDU-ČSL) - 25,00 % | Pavel Jelínek (SPD) - 25,00 % | Martin Škurek (ANO) - 25,00 % | Marek Ošťádal (24/7) - 15,00 % | Zdeněk Beil (Levice) - 10,00 %", "REMIZA": true, "Vítěz": "remíza", "NAZEV_OBV": "Litovel", "OBVOD_NAZEV": "66 - Litovel", "OBEC": 540471, "NAZEVOBCE": "Mohelnice", "Název okrsku": "Mohelnice - okrsek č. 2", "Volební účast (v %)": 40.0, "kod_obec": 540471, "kod_mco": null, "cislo": 2, "naz_obec": "Mohelnice", "naz_mco": " " }, "geometry": { "type": "Polygon", "coordinates": [ [ [ 16.909925876270115, 49.784971733850114 ], [ 16.901422562098379, 49.786665871207205 ], [ 16.9003517462064, 49.785744549277908 ], [ 16.90801420281997, 49.782099057147633 ], [ 16.906914125894406, 49.778305826119549 ], [ 16.902611138202435, 49.778776193521615 ], [ 16.911837463394448, 49.775653945376163 ], [ 16.912822595526514, 49.777155288633885 ], [ 16.918999153627073, 49.774701183388665 ], [ 16.921726228430533, 49.776166274770524 ], [ 16.917748755286969, 49.775814137572041 ], [ 16.918094274809544, 49.777480908536766 ], [ 16.92255865445134, 49.777128238389508 ], [ 16.92220995236136, 49.778006121477063 ], [ 16.91878061977534, 49.778657795195969 ], [ 16.918211963652986, 49.780565313218979 ], [ 16.921982057963888, 49.7794264663669 ], [ 16.917968764406528, 49.783421939246608 ], [ 16.91480417875966, 49.782407694517367 ], [ 16.909925876270115, 49.784971733850114 ] ] ] } },
{ "type": "Feature", "properties": { "DAVKA": 4, "CIS_OBEC": 540471, "CIS_OKRSEK": 3, "CIS_OBVOD": 66, "PORADI_ZPRAC": 8, "DATUM_CAS_ZPRAC": "2026-09-11T10:16:12", "OPAKOVANE": "0", "ZAPSANI_VOLICI": 800, "VYDANE_OBALKY": 200, "ODEVZDANE_OBALKY": 100, "PLATNE_HLASY": 100, "PORADOVE_CISLO": 1, "HLASY": 30, "OBVOD": 66, "CKAND": 1, "JMENO": "Michael", "PRIJMENI": "Kohajda", "ZKRATKAV8": "remíza", "HLASY_PROC": 30.0, "HLASY_PROC_TEXT": " - 30,00 %", "TOOLTIP": "Michael Kohajda (KDU-ČSL) - 30,00 %", "Výsledek 1. kola": "Michael Kohajda (KDU-ČSL) - 30,00 % | Pavel Jelínek (SPD) - 30,00 % | Martin Škurek (ANO) - 30,00 % | Zdeněk Beil (Levice) - 5,00 % | Marek Ošťádal (24/7) - 5,00 %", "REMIZA": true, "Vítěz": "remíza", "NAZEV_OBV": "Litovel", "OBVOD_NAZEV": "66 - Litovel", "OBEC": 540471, "NAZEVOBCE": "Mohelnice", "Název okrsku": "Mohelnice - okrsek č. 3", "Volební účast (v %)": 25.0, "kod_obec": 540471, "kod_mco": null, "cislo": 3, "naz_obec": "Mohelnice", "naz_mco": " " }, "geometry": { "type": "MultiPolygon", "coordinates": [ [ [ [ 16.923475262385939, 49.779208545397907 ], [ 16.918211963652986, 49.780565313218979 ], [ 16.91878061977534, 49.778657795195969 ], [ 16.92220995236136, 49.778006121477063 ], [ 16.923475262385939, 49.779208545397907 ] ] ], [ [ [ 16.91872455354746, 49.775890222860916 ], [ 16.918094274809544, 49.777480908536766 ], [ 16.917748755286969, 49.775814137572041 ], [ 16.91872455354746, 49.775890222860916 ] ] ] ] } },
{ "type": "Feature", "properties": { "DAVKA": 3, "CIS_OBEC": 540757, "CIS_OKRSEK": 3, "CIS_OBVOD": 18, "PORADI_ZPRAC": 7, "DATUM_CAS_ZPRAC": "2026-09-11T10:14:23", "OPAKOVANE": "0", "ZAPSANI_VOLICI": 600, "VYDANE_OBALKY": 200, "ODEVZDANE_OBALKY": 200, "PLATNE_HLASY": 200, "PORADOVE_CISLO": 1, "HLASY": 90, "OBVOD": 18, "CKAND": 1, "JMENO": "Petr", "PRIJMENI": "Štěpánek", "ZKRATKAV8": "remíza", "HLASY_PROC": 45.0, "HLASY_PROC_TEXT": " - 45,00 %", "TOOLTIP": "Petr Štěpánek (STAN) - 45,00 %", "Výsledek 1. kola": "Petr Štěpánek (STAN) - 45,00 % | Frank Thomas Podstatzky-Lichtenstein (ČZS) - 45,00 % | Barbora Daňhová (ANO) - 2,50 % | Pavel Vermach (SMS) - 2,50 % | Josef Šorna (SPD+PRO) - 2,50 % | Simona Luftová (Zelení+Piráti) - 2,50 %", "REMIZA": true, "Vítěz": "remíza", "NAZEV_OBV": "Příbram", "OBVOD_NAZEV": "18 - Příbram", "OBEC": 540757, "NAZEVOBCE": "Milín", "Název okrsku": "Milín - okrsek č. 3", "Volební účast (v %)": 33.3, "kod_obec": 540757, "kod_mco": null, "cislo": 3, "naz_obec": "Milín", "naz_mco": " " }, "geometry": { "type": "Polygon", "coordinates": [ [ [ 14.028032845714055, 49.659102040900706 ], [ 14.017615505294719, 49.659008761795981 ], [ 14.021048597931633, 49.655949850648547 ], [ 14.017257137253436, 49.653109198614509 ], [ 14.024420709764431, 49.649539059071017 ], [ 14.028005917130315, 49.649640014332689 ], [ 14.031290023459787, 49.644828930909505 ], [ 14.041074056347536, 49.639202899915858 ], [ 14.048615655285355, 49.637867412440059 ], [ 14.05334839280437, 49.649320994245841 ], [ 14.050678241912676, 49.651427226414249 ], [ 14.05363556005514, 49.653694341872011 ], [ 14.037878025973852, 49.65964688370007 ], [ 14.038279378588285, 49.656648030060602 ], [ 14.028032845714055, 49.659102040900706 ] ] ] } },
{ "type": "Feature", "properties": { "DAVKA": 5, "CIS_OBEC": 541427, "CIS_OKRSEK": 2, "CIS_OBVOD": 18, "PORADI_ZPRAC": 10, "DATUM_CAS_ZPRAC": "2026-09-11T10:28:33", "OPAKOVANE": "0", "ZAPSANI_VOLICI": 400, "VYDANE_OBALKY": 150, "ODEVZDANE_OBALKY": 150, "PLATNE_HLASY": 150, "PORADOVE_CISLO": 1, "HLASY": 50, "OBVOD": 18, "CKAND": 1, "JMENO": "Petr", "PRIJMENI": "Štěpánek", "ZKRATKAV8": "remíza", "HLASY_PROC": 33.33, "HLASY_PROC_TEXT": " - 33,33 %", "TOOLTIP": "Petr Štěpánek (STAN) - 33,33 %", "Výsledek 1. kola": "Petr Štěpánek (STAN) - 33,33 % | Frank Thomas Podstatzky-Lichtenstein (ČZS) - 33,33 % | Josef Šorna (SPD+PRO) - 13,33 % | Barbora Daňhová (ANO) - 6,67 % | Pavel Vermach (SMS) - 6,67 % | Simona Luftová (Zelení+Piráti) - 6,67 %", "REMIZA": true, "Vítěz": "remíza", "NAZEV_OBV": "Příbram", "OBVOD_NAZEV": "18 - Příbram", "OBEC": 541427, "NAZEVOBCE": "Tochovice", "Název okrsku": "Tochovice - okrsek č. 2", "Volební účast (v %)": 37.5, "kod_obec": 541427, "kod_mco": null, "cislo": 2, "naz_obec": "Tochovice", "naz_mco": " " }, "geometry": { "type": "Polygon", "coordinates": [ [ [ 14.013750357715104, 49.602079693499491 ], [ 14.011130979544363, 49.604756011768082 ], [ 14.011403203199119, 49.600503317006535 ], [ 14.008679242344369, 49.598024601791828 ], [ 14.005560553637741, 49.598265620553697 ], [ 14.006973919146162, 49.597068758442717 ], [ 14.005257669910499, 49.596394182782063 ], [ 14.009189269450836, 49.594086794185237 ], [ 14.008358479389425, 49.589858109636218 ], [ 14.012472236426488, 49.586372070066169 ], [ 14.009546556349367, 49.583754536019747 ], [ 14.021756157079905, 49.582987310740656 ], [ 14.024383854514591, 49.585720288928911 ], [ 14.028052924084404, 49.585046137520806 ], [ 14.028095810963237, 49.587163230582206 ], [ 14.030272424258403, 49.58664394053887 ], [ 14.030693006239602, 49.588100350705083 ], [ 14.031581209860459, 49.585838162752097 ], [ 14.033965963268784, 49.589483750592962 ], [ 14.037120053446314, 49.588493876365874 ], [ 14.03569367313202, 49.589817790092127 ], [ 14.038598316711941, 49.59002882394676 ], [ 14.03793365949174, 49.592305621307212 ], [ 14.034785942411721, 49.592440870936201 ], [ 14.033572708991114, 49.596307117591856 ], [ 14.030845913034653, 49.59631887945585 ], [ 14.0312870033057, 49.598872877111901 ], [ 14.026161905449779, 49.602654614594236 ], [ 14.015593321728741, 49.604044747660971 ], [ 14.015656963707517, 49.602047331337566 ], [ 14.013750357715104, 49.602079693499491 ] ] ] } },
{ "type": "Feature", "properties": { "DAVKA": 4, "CIS_OBEC": 564362, "CIS_OKRSEK": 1, "CIS_OBVOD": 18, "PORADI_ZPRAC": 9, "DATUM_CAS_ZPRAC": "2026-09-11T10:19:06", "OPAKOVANE": "0", "ZAPSANI_VOLICI": 180, "VYDANE_OBALKY": 50, "ODEVZDANE_OBALKY": 50, "PLATNE_HLASY": 50, "PORADOVE_CISLO": 1, "HLASY": 20, "OBVOD": 18, "CKAND": 1, "JMENO": "Petr", "PRIJMENI": "Štěpánek", "ZKRATKAV8": "remíza", "HLASY_PROC": 40.0, "HLASY_PROC_TEXT": " - 40,00 %", "TOOLTIP": "Petr Štěpánek (STAN) - 40,00 %", "Výsledek 1. kola": "Petr Štěpánek (STAN) - 40,00 % | Frank Thomas Podstatzky-Lichtenstein (ČZS) - 40,00 % | Simona Luftová (Zelení+Piráti) - 8,00 % | Barbora Daňhová (ANO) - 4,00 % | Pavel Vermach (SMS) - 4,00 % | Josef Šorna (SPD+PRO) - 4,00 %", "REMIZA": true, "Vítěz": "remíza", "NAZEV_OBV": "Příbram", "OBVOD_NAZEV": "18 - Příbram", "OBEC": 564362, "NAZEVOBCE": "Vrančice", "Název okrsku": "Vrančice - okrsek č. 1", "Volební účast (v %)": 27.8, "kod_obec": 564362, "kod_mco": null, "cislo": 1, "naz_obec": "Vrančice", "naz_mco": " " }, "geometry": { "type": "Polygon", "coordinates": [ [ [ 14.028600944295324, 49.6306650143121 ], [ 14.024796374948322, 49.629808652747649 ], [ 14.025093498605747, 49.627873374728345 ], [ 14.019777142951089, 49.625639598153548 ], [ 14.024428724343242, 49.627071249983103 ], [ 14.022430906222105, 49.625336675202639 ], [ 14.026873541724839, 49.625602242074685 ], [ 14.028463624348001, 49.622544113904659 ], [ 14.027799923016874, 49.62039789134468 ], [ 14.023219960593602, 49.618294827167496 ], [ 14.023287605127543, 49.6154859483674 ], [ 14.026137017152411, 49.613426047866241 ], [ 14.021148144285986, 49.611960090094769 ], [ 14.020497281717102, 49.610238891419343 ], [ 14.025229415194847, 49.610903427127838 ], [ 14.026247941265551, 49.6081880010858 ], [ 14.022484824973995, 49.606414753158525 ], [ 14.020770406703967, 49.603190498957126 ], [ 14.026161905449779, 49.602654614594236 ], [ 14.0312870033057, 49.598872877111901 ], [ 14.034664212256756, 49.599466201079103 ], [ 14.035147102660561, 49.602769488452104 ], [ 14.039982047157164, 49.602013446072498 ], [ 14.044057415819983, 49.603709701410153 ], [ 14.047018575634013, 49.603108231798224 ], [ 14.047910052966103, 49.604749335620674 ], [ 14.054020553796184, 49.604559576874109 ], [ 14.056972808129499, 49.601364386467033 ], [ 14.062674172042868, 49.603838272709226 ], [ 14.065751048544517, 49.59875221173882 ], [ 14.076669570710294, 49.600252826749461 ], [ 14.078493998391183, 49.602926987091259 ], [ 14.081669995878221, 49.600929520523714 ], [ 14.084355209695024, 49.601479509847145 ], [ 14.080118309417056, 49.614619817348682 ], [ 14.076171209097712, 49.616331599638613 ], [ 14.071574487197621, 49.611809146784609 ], [ 14.063450609992106, 49.611988552722472 ], [ 14.06146512827446, 49.610807995898185 ], [ 14.061808135313569, 49.614608027107366 ], [ 14.056743349717312, 49.616482198026546 ], [ 14.058255774464991, 49.619460789535999 ], [ 14.053494192671891, 49.62066712815826 ], [ 14.057969905988953, 49.624494158647749 ], [ 14.061543408431689, 49.623407963817421 ], [ 14.06326933350514, 49.626750251852258 ], [ 14.05452402356573, 49.627421060248885 ], [ 14.051722058486762, 49.624372441388253 ], [ 14.04789650489603, 49.62558477025685 ], [ 14.045775939544217, 49.622539174949111 ], [ 14.03166391215067, 49.62739277438142 ], [ 14.028600944295324, 49.6306650143121 ] ] ] } },
{ "type": "Feature", "properties": { "DAVKA": 6, "CIS_OBEC": 576069, "CIS_OKRSEK": 1, "CIS_OBVOD": 48, "PORADI_ZPRAC": 11, "DATUM_CAS_ZPRAC": "2026-09-11T11:00:10", "OPAKOVANE": "0", "ZAPSANI_VOLICI": 800, "VYDANE_OBALKY": 400, "ODEVZDANE_OBALKY": 400, "PLATNE_HLASY": 400, "PORADOVE_CISLO": 1, "HLASY": 200, "OBVOD": 48, "CKAND": 1, "JMENO": "Petr", "PRIJMENI": "Sadovský", "ZKRATKAV8": "remíza", "HLASY_PROC": 50.0, "HLASY_PROC_TEXT": " - 50,00 %", "TOOLTIP": "Petr Sadovský (ANO) - 50,00 %", "Výsledek 1. kola": "Petr Sadovský (ANO) - 50,00 % | Jan Grulich (KDUODSSTPTOPLES) - 50,00 %", "REMIZA": true, "Vítěz": "remíza", "NAZEV_OBV": "Rychnov nad Kněžnou", "OBVOD_NAZEV": "48 - Rychnov nad Kněžnou", "OBEC": 576069, "NAZEVOBCE": "Rychnov nad Kněžnou", "Název okrsku": "Rychnov nad Kněžnou - okrsek č. 1", "Volební účast (v %)": 50.0, "kod_obec": 576069, "kod_mco": null, "cislo": 1, "naz_obec": "Rychnov nad Kněžnou", "naz_mco": " " }, "geometry": { "type": "Polygon", "coordinates": [ [ [ 16.326102894386349, 50.19803975506457 ], [ 16.316743286358573, 50.193048466700347 ], [ 16.308422570576891, 50.193001855743255 ], [ 16.297120347787384, 50.189363651635034 ], [ 16.298002769513062, 50.187106321055779 ], [ 16.294741340224462, 50.185918377462102 ], [ 16.283210979992845, 50.186822246138469 ], [ 16.287718530915555, 50.182058259213839 ], [ 16.288142479815836, 50.177721681871212 ], [ 16.290652351031987, 50.17709929611555 ], [ 16.290049456483104, 50.17390807908594 ], [ 16.285716653706704, 50.170835200122767 ], [ 16.289743038625975, 50.170360156596978 ], [ 16.294626910656575, 50.172299518057521 ], [ 16.304853132938973, 50.169349977511445 ], [ 16.305662907054284, 50.167829757473825 ], [ 16.312243517359175, 50.167390113692775 ], [ 16.311422504864598, 50.169533104089496 ], [ 16.31734870807195, 50.172520543760655 ], [ 16.318431361547663, 50.176382461350599 ], [ 16.324599389903518, 50.179913266300822 ], [ 16.322148127184942, 50.181374981677067 ], [ 16.315942918953706, 50.178820561843303 ], [ 16.31702561273044, 50.18252756378925 ], [ 16.313319944083759, 50.184904797624249 ], [ 16.323044473479005, 50.187231193029255 ], [ 16.324430457572507, 50.194168370918682 ], [ 16.329299674192537, 50.196993721818671 ], [ 16.326102894386349, 50.19803975506457 ] ] ] } },
{ "type": "Feature", "properties": { "DAVKA": 7, "CIS_OBEC": 576069, "CIS_OKRSEK": 2, "CIS_OBVOD": 48, "PORADI_ZPRAC": 12, "DATUM_CAS_ZPRAC": "2026-09-11T11:13:13", "OPAKOVANE": "0", "ZAPSANI_VOLICI": 1000, "VYDANE_OBALKY": 199, "ODEVZDANE_OBALKY": 200, "PLATNE_HLASY": 200, "PORADOVE_CISLO": 1, "HLASY": 100, "OBVOD": 48, "CKAND": 1, "JMENO": "Petr", "PRIJMENI": "Sadovský", "ZKRATKAV8": "remíza", "HLASY_PROC": 50.0, "HLASY_PROC_TEXT": " - 50,00 %", "TOOLTIP": "Petr Sadovský (ANO) - 50,00 %", "Výsledek 1. kola": "Petr Sadovský (ANO) - 50,00 % | Jan Grulich (KDUODSSTPTOPLES) - 50,00 %", "REMIZA": true, "Vítěz": "remíza", "NAZEV_OBV": "Rychnov nad Kněžnou", "OBVOD_NAZEV": "48 - Rychnov nad Kněžnou", "OBEC": 576069, "NAZEVOBCE": "Rychnov nad Kněžnou", "Název okrsku": "Rychnov nad Kněžnou - okrsek č. 2", "Volební účast (v %)": 19.9, "kod_obec": 576069, "kod_mco": null, "cislo": 2, "naz_obec": "Rychnov nad Kněžnou", "naz_mco": " " }, "geometry": { "type": "Polygon", "coordinates": [ [ [ 16.332196562617984, 50.169317565922256 ], [ 16.318431361547663, 50.176382461350599 ], [ 16.31734870807195, 50.172520543760655 ], [ 16.311422504864598, 50.169533104089496 ], [ 16.312243517359175, 50.167390113692775 ], [ 16.305662907054284, 50.167829757473825 ], [ 16.304853132938973, 50.169349977511445 ], [ 16.294626910656575, 50.172299518057521 ], [ 16.289743038625975, 50.170360156596978 ], [ 16.280292777524448, 50.170657398694743 ], [ 16.277774895972851, 50.167631567219722 ], [ 16.280480496344335, 50.166103873086414 ], [ 16.285495943020003, 50.167902913448735 ], [ 16.289248440622085, 50.164883274341449 ], [ 16.287955348901001, 50.164104891649352 ], [ 16.299503362992219, 50.165000538868838 ], [ 16.314851367057432, 50.164662954296389 ], [ 16.325092033265875, 50.162877070350802 ], [ 16.332196562617984, 50.169317565922256 ] ] ] } },
{ "type": "Feature", "properties": { "DAVKA": 8, "CIS_OBEC": 576093, "CIS_OKRSEK": 1, "CIS_OBVOD": 48, "PORADI_ZPRAC": 14, "DATUM_CAS_ZPRAC": "2026-09-11T11:26:41", "OPAKOVANE": "0", "ZAPSANI_VOLICI": 500, "VYDANE_OBALKY": 200, "ODEVZDANE_OBALKY": 200, "PLATNE_HLASY": 200, "PORADOVE_CISLO": 1, "HLASY": 100, "OBVOD": 48, "CKAND": 1, "JMENO": "Petr", "PRIJMENI": "Sadovský", "ZKRATKAV8": "remíza", "HLASY_PROC": 50.0, "HLASY_PROC_TEXT": " - 50,00 %", "TOOLTIP": "Petr Sadovský (ANO) - 50,00 %", "Výsledek 1. kola": "Petr Sadovský (ANO) - 50,00 % | Jan Grulich (KDUODSSTPTOPLES) - 50,00 %", "REMIZA": true, "Vítěz": "remíza", "NAZEV_OBV": "Rychnov nad Kněžnou", "OBVOD_NAZEV": "48 - Rychnov nad Kněžnou", "OBEC": 576093, "NAZEVOBCE": "Bartošovice v Orlických horách", "Název okrsku": "Bartošovice v Orlických horách - okrsek č. 1", "Volební účast (v %)": 40.0, "kod_obec": 576093, "kod_mco": null, "cislo": 1, "naz_obec": "Bartošovice v Orlických horách", "naz_mco": " " }, "geometry": { "type": "Polygon", "coordinates": [ [ [ 16.510357275044793, 50.25029402319506 ], [ 16.50507618703638, 50.249992183016403 ], [ 16.499833218957782, 50.247242594199172 ], [ 16.496879406574696, 50.248300061036559 ], [ 16.499034450833332, 50.245055006425986 ], [ 16.495059971904215, 50.241811721217303 ], [ 16.495996358594923, 50.240277150374979 ], [ 16.491675913738181, 50.23892856322135 ], [ 16.490915236379976, 50.229476417747847 ], [ 16.508858047518927, 50.218653884197352 ], [ 16.503653861530509, 50.215685074935209 ], [ 16.516033478512057, 50.20677447076983 ], [ 16.521946032287115, 50.205739223141187 ], [ 16.521232495741941, 50.201490221770335 ], [ 16.524306875378194, 50.195407499289225 ], [ 16.527998981435957, 50.192744393312807 ], [ 16.521318119426077, 50.188466413668401 ], [ 16.528946815658657, 50.177266643392841 ], [ 16.513044802891621, 50.170505281727216 ], [ 16.505712249359611, 50.164928881964187 ], [ 16.520607623069615, 50.159602923346469 ], [ 16.523355304861205, 50.151294161215169 ], [ 16.52658700067888, 50.152972836554397 ], [ 16.535535257981955, 50.147748616316051 ], [ 16.540108885777279, 50.150189960549206 ], [ 16.569350216849994, 50.138653894738795 ], [ 16.571820710944809, 50.141204340642709 ], [ 16.575526866523255, 50.139767564374914 ], [ 16.580081364079582, 50.142418986115885 ], [ 16.584672799070692, 50.145651778291331 ], [ 16.580202325271273, 50.148645679454383 ], [ 16.585416263169428, 50.152274072452151 ], [ 16.57783094804422, 50.155260872626982 ], [ 16.578359316319194, 50.157684385560806 ], [ 16.561660406006975, 50.163387983538705 ], [ 16.557831962009615, 50.170582185797564 ], [ 16.558248056814481, 50.173981701033362 ], [ 16.563820602884864, 50.179757462997095 ], [ 16.560442966920156, 50.184113781291479 ], [ 16.557101327638758, 50.184840496819888 ], [ 16.558877250836574, 50.189117506950133 ], [ 16.554411073584404, 50.195692950476591 ], [ 16.556988918133371, 50.199547666251526 ], [ 16.555933783073634, 50.203067431392192 ], [ 16.561265859478681, 50.205455120846693 ], [ 16.561691807092302, 50.207613266979088 ], [ 16.5584875152759, 50.210092289351387 ], [ 16.558193668357706, 50.213519771170986 ], [ 16.553429670650967, 50.214965663395077 ], [ 16.556758049048955, 50.217053051742546 ], [ 16.557353180434799, 50.220380329210855 ], [ 16.551431037065594, 50.222818239742388 ], [ 16.548310745288386, 50.229762782648933 ], [ 16.545244013335086, 50.230028582924014 ], [ 16.540616022819808, 50.233831637187386 ], [ 16.537565846043414, 50.238982974108723 ], [ 16.529192418307922, 50.237597384035197 ], [ 16.522872392920597, 50.239356217470409 ], [ 16.512826938940712, 50.247483224503419 ], [ 16.512913386821495, 50.24922761262485 ], [ 16.510357275044793, 50.25029402319506 ] ] ] } },
{ "type": "Feature", "properties": { "DAVKA": 3, "CIS_OBEC": 592889, "CIS_OKRSEK": 1, "CIS_OBVOD": 57, "PORADI_ZPRAC": 6, "DATUM_CAS_ZPRAC": "2026-09-11T10:14:18", "OPAKOVANE": "0", "ZAPSANI_VOLICI": 560, "VYDANE_OBALKY": 100, "ODEVZDANE_OBALKY": 101, "PLATNE_HLASY": 101, "PORADOVE_CISLO": 2, "HLASY": 50, "OBVOD": 57, "CKAND": 2, "JMENO": "Jan", "PRIJMENI": "Grolich", "ZKRATKAV8": "KDU-ČSL", "HLASY_PROC": 49.5, "HLASY_PROC_TEXT": " - 49,50 %", "TOOLTIP": "Jan Grolich (KDU-ČSL) - 49,50 %", "Výsledek 1. kola": "Jan Grolich (KDU-ČSL) - 49,50 % | Petra Absolonová (ANO) - 30,69 % | Jaroslav Fládr (PŘÍSAHA) - 19,80 %", "REMIZA": false, "Vítěz": "Jan Grolich (KDU-ČSL)", "NAZEV_OBV": "Vyškov", "OBVOD_NAZEV": "57 - Vyškov", "OBEC": 592889, "NAZEVOBCE": "Vyškov", "Název okrsku": "Vyškov - okrsek č. 1", "Volební účast (v %)": 17.9, "kod_obec": 592889, "kod_mco": null, "cislo": 1, "naz_obec": "Vyškov", "naz_mco": " " }, "geometry": { "type": "Polygon", "coordinates": [ [ [ 17.001249635609408, 49.276170870861847 ], [ 17.002489027705444, 49.280597685459959 ], [ 16.99752956904204, 49.277186930282511 ], [ 16.993841821759929, 49.278040438828747 ], [ 16.99498315545344, 49.279813044463559 ], [ 16.993422709919063, 49.277988880399803 ], [ 16.995373921332106, 49.277167231809358 ], [ 16.992902138350711, 49.277812060188033 ], [ 16.991954831654407, 49.275027901733395 ], [ 16.989352966027447, 49.276163981246825 ], [ 16.987420473667829, 49.273955649748977 ], [ 16.992292424602439, 49.274374455952383 ], [ 16.996130266919149, 49.277292752877486 ], [ 17.000379460059253, 49.275554988114287 ], [ 17.001249635609408, 49.276170870861847 ] ] ] } },
{ "type": "Feature", "properties": { "DAVKA": 2, "CIS_OBEC": 592889, "CIS_OKRSEK": 2, "CIS_OBVOD": 57, "PORADI_ZPRAC": 3, "DATUM_CAS_ZPRAC": "2026-09-11T10:02:16", "OPAKOVANE": "0", "ZAPSANI_VOLICI": 500, "VYDANE_OBALKY": 100, "ODEVZDANE_OBALKY": 100, "PLATNE_HLASY": 100, "PORADOVE_CISLO": 2, "HLASY": 50, "OBVOD": 57, "CKAND": 2, "JMENO": "Jan", "PRIJMENI": "Grolich", "ZKRATKAV8": "KDU-ČSL", "HLASY_PROC": 50.0, "HLASY_PROC_TEXT": " - 50,00 %", "TOOLTIP": "Jan Grolich (KDU-ČSL) - 50,00 %", "Výsledek 1. kola": "Jan Grolich (KDU-ČSL) - 50,00 % | Petra Absolonová (ANO) - 30,00 % | Jaroslav Fládr (PŘÍSAHA) - 20,00 %", "REMIZA": false, "Vítěz": "Jan Grolich (KDU-ČSL)", "NAZEV_OBV": "Vyškov", "OBVOD_NAZEV": "57 - Vyškov", "OBEC": 592889, "NAZEVOBCE": "Vyškov", "Název okrsku": "Vyškov - okrsek č. 2", "Volební účast (v %)": 20.0, "kod_obec": 592889, "kod_mco": null, "cislo": 2, "naz_obec": "Vyškov", "naz_mco": " " }, "geometry": { "type": "MultiPolygon", "coordinates": [ [ [ [ 16.996142481615077, 49.284130151422168 ], [ 16.991210890379424, 49.284535985502131 ], [ 16.991625552460214, 49.283296964879675 ], [ 16.999899602058875, 49.279074026855724 ], [ 17.002489027705444, 49.280597685459959 ], [ 17.002849271486287, 49.284032587029564 ], [ 17.004897753840261, 49.284116061412369 ], [ 16.99886100750599, 49.284271868358076 ], [ 17.001031627130693, 49.28184845665907 ], [ 16.999257020284251, 49.280282532082332 ], [ 16.995632450051872, 49.282214765810245 ], [ 16.996142481615077, 49.284130151422168 ] ] ], [ [ [ 17.003570616687611, 49.27693770598917 ], [ 17.001691063601488, 49.279155458323395 ], [ 17.001249635609408, 49.276170870861847 ], [ 17.003570616687611, 49.27693770598917 ] ] ] ] } },
{ "type": "Feature", "properties": { "DAVKA": 3, "CIS_OBEC": 592889, "CIS_OKRSEK": 10, "CIS_OBVOD": 57, "PORADI_ZPRAC": 5, "DATUM_CAS_ZPRAC": "2026-09-11T10:13:58", "OPAKOVANE": "0", "ZAPSANI_VOLICI": 158, "VYDANE_OBALKY": 50, "ODEVZDANE_OBALKY": 50, "PLATNE_HLASY": 50, "PORADOVE_CISLO": 2, "HLASY": 20, "OBVOD": 57, "CKAND": 2, "JMENO": "Jan", "PRIJMENI": "Grolich", "ZKRATKAV8": "remíza", "HLASY_PROC": 40.0, "HLASY_PROC_TEXT": " - 40,00 %", "TOOLTIP": "Jan Grolich (KDU-ČSL) - 40,00 %", "Výsledek 1. kola": "Jan Grolich (KDU-ČSL) - 40,00 % | Petra Absolonová (ANO) - 40,00 % | Jaroslav Fládr (PŘÍSAHA) - 20,00 %", "REMIZA": true, "Vítěz": "remíza", "NAZEV_OBV": "Vyškov", "OBVOD_NAZEV": "57 - Vyškov", "OBEC": 592889, "NAZEVOBCE": "Vyškov", "Název okrsku": "Vyškov - okrsek č. 10", "Volební účast (v %)": 31.6, "kod_obec": 592889, "kod_mco": null, "cislo": 10, "naz_obec": "Vyškov", "naz_mco": " " }, "geometry": { "type": "Polygon", "coordinates": [ [ [ 17.008495845463212, 49.276800361896562 ], [ 17.00806203107318, 49.278984143537073 ], [ 17.007617363616795, 49.277227089858442 ], [ 17.006547242526985, 49.278369535757719 ], [ 17.004384967453706, 49.277171575797482 ], [ 17.00511893379073, 49.278362778652429 ], [ 17.003570616687611, 49.27693770598917 ], [ 17.008495845463212, 49.276800361896562 ] ] ] } },
{ "type": "Feature", "properties": { "DAVKA": 8, "CIS_OBEC": 592889, "CIS_OKRSEK": 11, "CIS_OBVOD": 57, "PORADI_ZPRAC": 13, "DATUM_CAS_ZPRAC": "2026-09-11T11:25:06", "OPAKOVANE": "0", "ZAPSANI_VOLICI": 2010, "VYDANE_OBALKY": 500, "ODEVZDANE_OBALKY": 500, "PLATNE_HLASY": 500, "PORADOVE_CISLO": 2, "HLASY": 300, "OBVOD": 57, "CKAND": 2, "JMENO": "Jan", "PRIJMENI": "Grolich", "ZKRATKAV8": "KDU-ČSL", "HLASY_PROC": 60.0, "HLASY_PROC_TEXT": " - 60,00 %", "TOOLTIP": "Jan Grolich (KDU-ČSL) - 60,00 %", "Výsledek 1. kola": "Jan Grolich (KDU-ČSL) - 60,00 % | Jaroslav Fládr (PŘÍSAHA) - 20,00 % | Petra Absolonová (ANO) - 20,00 %", "REMIZA": false, "Vítěz": "Jan Grolich (KDU-ČSL)", "NAZEV_OBV": "Vyškov", "OBVOD_NAZEV": "57 - Vyškov", "OBEC": 592889, "NAZEVOBCE": "Vyškov", "Název okrsku": "Vyškov - okrsek č. 11", "Volební účast (v %)": 24.9, "kod_obec": 592889, "kod_mco": null, "cislo": 11, "naz_obec": "Vyškov", "naz_mco": " " }, "geometry": { "type": "Polygon", "coordinates": [ [ [ 17.008346854654352, 49.271120283041668 ], [ 17.004354876767326, 49.275857954174654 ], [ 17.00496000408554, 49.27366011837367 ], [ 17.002949720372222, 49.275064443186892 ], [ 17.00002370666185, 49.270887491128214 ], [ 17.003309743158876, 49.265405929590443 ], [ 17.004851729778405, 49.264270056020827 ], [ 17.007267484120849, 49.265126758308355 ], [ 17.007240328708704, 49.259190884720489 ], [ 17.002518036402659, 49.253303396492392 ], [ 17.008981296849115, 49.248705222941915 ], [ 17.012192421748473, 49.249530311521269 ], [ 17.011136236271614, 49.251607421797551 ], [ 17.016450425382502, 49.252234889114767 ], [ 17.012758630492108, 49.262062502971858 ], [ 17.013325010485833, 49.270158559207275 ], [ 17.01223580276957, 49.271787906544667 ], [ 17.008346854654352, 49.271120283041668 ] ] ] } }
]
}
